CCSDS_OEM_VERS = 2.0  
CREATION_DATE  = 2026-05-08T16:26:35
ORIGINATOR     = ESOC/OPS-GFA                            
 
 



META_START
OBJECT_NAME          = LISA                                    
OBJECT_ID            = -1000                                   
CENTER_NAME          = SUN                     
REF_FRAME            = EME2000 
TIME_SYSTEM          = TCB
START_TIME           = 2036-12-23T00:00:30.346418            
STOP_TIME            = 2047-09-09T13:05:22.587857            
INTERPOLATION        = HERMITE                                 
INTERPOLATION_DEGREE = 7                                       
META_STOP

2039-12-11T08:56:12.411087     7.64484583228468895e+07    1.17882827456687659e+08    5.05048994495107904e+07   -2.57011318998682299e+01    1.40101221242414660e+01    5.83077974962274581e+00   -3.04851179343010937e-06   -4.70061819207319325e-06   -2.01390119117242381e-06
2039-12-12T05:10:48.445664     7.45674323614158630e+07    1.18891310792647168e+08    5.09244605238001570e+07   -2.59205862318273752e+01    1.36660566312795595e+01    5.68338882520189959e+00   -2.97405163390816271e-06   -4.74170338308350384e-06   -2.03100457150509535e-06
2039-12-13T01:25:24.480242     7.26706117358826101e+07    1.19874611687870026e+08    5.13332352525886074e+07   -2.61345900021790243e+01    1.33190332577315083e+01    5.53476700630482199e+00   -2.89892992882562211e-06   -4.78179227754667966e-06   -2.04768102975326429e-06
2039-12-13T21:40:00.514820     7.07583953992861211e+07    1.20832517226068139e+08    5.17311350653428435e+07   -2.63430955725057174e+01    1.29691249551753245e+01    5.38494554939019565e+00   -2.82316240920144586e-06   -4.82087542183461075e-06   -2.06392662344526358e-06
2039-12-14T17:54:36.549398     6.88311857621192485e+07    1.21764819958871767e+08    5.21180737337305248e+07   -2.65460564554282783e+01    1.26164053585691001e+01    5.23395599584050064e+00   -2.74676492982794998e-06   -4.85894351171403622e-06   -2.07973747423581096e-06
2039-12-15T14:11:45.576081     6.68852970176642239e+07    1.22673193534759268e+08    5.24947447660083100e+07   -2.67438357728956362e+01    1.22601997066185238e+01    5.08150962297315090e+00   -2.66959149586422177e-06   -4.89606455622603686e-06   -2.09514178140520056e-06
2039-12-16T10:28:54.602762     6.49251709763043746e+07    1.23555455706501305e+08    5.28602421111576110e+07   -2.69359571806030225e+01    1.19013209572820511e+01    4.92795447791137953e+00   -2.59181806057498987e-06   -4.93214851711940654e-06   -2.11010212579803326e-06
2039-12-17T06:46:03.629444     6.29512224100039899e+07    1.24411414066073313e+08    5.32144859974880666e+07   -2.71223774645824030e+01    1.15398451595957798e+01    4.77332311244966334e+00   -2.51346117508133553e-06   -4.96718688095280058e-06   -2.12461496879965970e-06
2039-12-18T03:03:12.656126     6.09638692048088387e+07    1.25240881717658818e+08    5.35573990126484334e+07   -2.73030546245187935e+01    1.11758489781928780e+01    4.61764833417236709e+00   -2.43453752661275307e-06   -5.00117130653098416e-06   -2.13867684571466047e-06
2039-12-18T23:20:21.682808     5.89635322708140537e+07    1.26043677377609685e+08    5.38889061456891969e+07   -2.74779478838354230e+01    1.08094096798418065e+01    4.46096320067935892e+00   -2.35506394217491566e-06   -5.03409364830101904e-06   -2.15228437573404499e-06
2039-12-19T19:37:30.709489     5.69506354517900273e+07    1.26819625446900055e+08    5.42089348174268529e+07   -2.76470176999896573e+01    1.04406051184311863e+01    4.30330101315004221e+00   -2.27505739071487320e-06   -5.06594597558369938e-06   -2.16543427012396673e-06
2039-12-20T15:54:39.736172     5.49256054343614206e+07    1.27568556061841041e+08    5.45174149015617371e+07   -2.78102257748722366e+01    1.00695137187020762e+01    4.14469530937422004e+00   -2.19453498378547045e-06   -5.09672058764725099e-06   -2.17812333863899372e-06
2039-12-21T12:11:48.762853     5.28888716566507816e+07    1.28290305128812522e+08    5.48142787389967442e+07   -2.79675350652000709e+01    9.69621445903158907e+00    3.98517985637957040e+00   -2.11351397470362502e-06   -5.12641002461219952e-06   -2.19034849415525009e-06
2039-12-22T08:28:57.789535     5.08408662162989154e+07    1.28984714348768726e+08    5.50994611478044391e+07   -2.81189097927928451e+01    9.32078685357172176e+00    3.82478864278551933e+00   -2.03201175621193364e-06   -5.15500707420705786e-06   -2.20210675553164499e-06
2039-12-23T04:46:06.816217     4.87820237777736261e+07    1.29651631237273946e+08    5.53728994312899038e+07   -2.82643154546237589e+01    8.94331093404737132e+00    3.66355587101326741e+00   -1.95004585662837719e-06   -5.18250477434297856e-06   -2.21339524868580613e-06
2039-12-24T01:03:15.842899     4.67127814788789153e+07    1.30290909145825058e+08    5.56345333865967914e+07   -2.84037188325345795e+01    8.56386723151735296e+00    3.50151594948177713e+00   -1.86763393450450995e-06   -5.20889641155190635e-06   -2.22421120590359454e-06
2039-12-24T21:20:24.869580     4.46335788363763243e+07    1.30902407290217251e+08    5.58843053163039982e+07   -2.85370880025053602e+01    8.18253675840242245e+00    3.33870348491946167e+00   -1.78479377177732023e-06   -5.23417551525036940e-06   -2.23455196336603394e-06
2039-12-25T17:37:33.896263     4.25448576506304294e+07    1.31485990791709542e+08    5.61221600454603806e+07   -2.86643923433690233e+01    7.79940099108419904e+00    3.17515327492138466e+00   -1.70154326540137806e-06   -5.25833584781476801e-06   -2.24441495688773298e-06
2039-12-26T13:54:42.922944     4.04470619091900438e+07    1.32041530736746550e+08    5.63480449465049356e+07   -2.87856025448610993e+01    7.41454185337875593e+00    3.01090030088173055e+00   -1.61790041751773442e-06   -5.28137139056734916e-06   -2.25379771590899192e-06
2039-12-27T10:11:51.949626     3.83406376892175674e+07    1.32568904260992989e+08    5.65619099745198414e+07   -2.89006906148948985e+01    7.02804170118910942e+00    2.84597972143131361e+00   -1.53388332408501109e-06   -5.30327632553356902e-06   -2.26269785568225572e-06
2039-12-28T06:29:00.976308     3.62260330586778894e+07    1.33067994663437709e+08    5.67637077152638212e+07   -2.90096298859523465e+01    6.63998330864010811e+00    2.68042686650994311e+00   -1.44951016199265693e-06   -5.32404501301169741e-06   -2.27111306767021209e-06
2039-12-29T02:46:50.037012     3.41025325153719857e+07    1.33538941464477703e+08    5.69534939680545107e+07   -2.91124496647882971e+01    6.25023590797358786e+00    2.51418598476596777e+00   -1.36475286762455028e-06   -5.34368300306197702e-06   -2.27904557343346588e-06
2039-12-29T23:04:39.097716     3.19717455801203251e+07    1.33981358401352838e+08    5.71311124218994156e+07   -2.92090645190259259e+01    5.85909547840607647e+00    2.34738335799334319e+00   -1.27967598417151033e-06   -5.36217332587125025e-06   -2.28648847528697080e-06
2039-12-30T19:22:28.158420     2.98341264643597230e+07    1.34395146786002427e+08    5.72965233525870219e+07   -2.92994517742767613e+01    5.46664605020269612e+00    2.18005483058845106e+00   -1.19429807535545108e-06   -5.37951132418882473e-06   -2.29343988438630947e-06
2039-12-31T15:40:17.219124     2.76901310055280998e+07    1.34780214019452691e+08    5.74496896332151666e+07   -2.93835901157497830e+01    5.07297198668250182e+00    2.01223638186635112e+00   -1.10863779108511986e-06   -5.39569254368340187e-06   -2.29989799860410129e-06
2040-01-01T11:58:06.279828     2.55402165522741377e+07    1.35136473670479864e+08    5.75905767670748234e+07   -2.94614595944480264e+01    4.67815796846561938e+00    1.84396411933127835e+00   -1.02271386459469259e-06   -5.41071275742024961e-06   -2.30586111292491401e-06
2040-01-02T08:15:55.340532     2.33848418563932031e+07    1.35463845526857942e+08    5.77191529089091197e+07   -2.95330416331416750e+01    4.28228897610283532e+00    1.67527427126035766e+00   -9.36545109224577337e-07   -5.42456798575648674e-06   -2.31132762789021782e-06
2040-01-03T04:33:44.401236     2.12244669699115232e+07    1.35762255624897242e+08    5.78353888769663423e+07   -2.95983190320928244e+01    3.88545027141862365e+00    1.50620317874141252e+00   -8.50150414844452295e-07   -5.43725451166224791e-06   -2.31629605609642734e-06
2040-01-04T00:51:33.461941     1.90595531457597017e+07    1.36031636262973100e+08    5.79392581582627445e+07   -2.96572759745057617e+01    3.48772737790213405e+00    1.33678728730723795e+00   -7.63548743916079021e-07   -5.44876889145566577e-06   -2.32076502674101984e-06
2040-01-04T21:09:22.522645     1.68905627404769436e+07    1.36271926004744232e+08    5.80307369094710648e+07   -2.97098980316765378e+01    3.08920606048069857e+00    1.16706313830872732e+00   -6.76759127200162875e-07   -5.45910796097260816e-06   -2.32473328822568600e-06
2040-01-05T17:27:11.583349     1.47179591173869930e+07    1.36483069677760392e+08    5.81098039558506832e+07   -2.97561721678155777e+01    2.68997230501035700e+00    9.97067360169239247e-01   -5.89800659100438529e-07   -5.46826883713713987e-06   -2.32819970880189478e-06
2040-01-06T13:45:00.644053     1.25422065486873724e+07    1.36665018373158604e+08    5.81764407906353399e+07   -2.97960867445172148e+01    2.29011229781798509e+00    8.26836659662572249e-01   -5.02692492653637588e-07   -5.47624891498031396e-06   -2.33116327527933717e-06
2040-01-07T10:02:49.704757     1.03637701148928106e+07    1.36817729452147603e+08    5.82306315772942081e+07   -2.98296315248498658e+01    1.88971240562951959e+00    6.56407813356955749e-01   -4.15453834160591480e-07   -5.48304586006756165e-06   -2.33362308977990282e-06
2040-01-08T06:20:38.765462     8.18311560007425025e+06    1.36941166564979911e+08    5.82723631570823640e+07   -2.98567976770406673e+01    1.48885915621882248e+00    4.85817659367405508e-01   -3.28103937448514448e-07   -5.48865759631693811e-06   -2.33557836453044083e-06
